start=new Date('2021-11-27T00:00:00.000Z').valueOf();
sats=[{"CLASSIFICATION_TYPE":"U","EPOCH":"2021-11-26T22:00:00.999936","BSTAR":"0.00257890000000","COUNTRY_CODE":"US","MEAN_MOTION_DDOT":"0.0000000000000","GP_ID":"190560528","MEAN_ANOMALY":"173.8282","RCS_SIZE":"LARGE","MEAN_ELEMENT_THEORY":"SGP4","RA_OF_ASC_NODE":"331.6566","LAUNCH_DATE":"2021-05-09","FILE":"3224952","TLE_LINE1":"1 48431U 21040D   21330.91667824  .00038320  00000-0  25789-2 0  9998","SITE":"AFETR","MEAN_MOTION":"15.06380234","OBJECT_ID":"2021-040D","REV_AT_EPOCH":"358","DECAY_DATE":null,"OBJECT_NAME":"STARLINK-2700","TLE_LINE2":"2 48431  53.0548 331.6566 0001936  49.1620 173.8282 15.06380234  3587","NORAD_CAT_ID":"48431","INCLINATION":"53.0548","PERIAPSIS":"545.933","PERIOD":"95.593","REF_FRAME":"TEME","ARG_OF_PERICENTER":"49.1620","TIME_SYSTEM":"UTC","APOAPSIS":"548.615","ELEMENT_SET_NO":"999","MEAN_MOTION_DOT":"0.00038320","OBJECT_TYPE":"PAYLOAD","CENTER_NAME":"EARTH","EPHEMERIS_TYPE":"0","ECCENTRICITY":"0.00019360","SEMIMAJOR_AXIS":"6925.409"},{"MEAN_MOTION_DDOT":"0.0000000000000","BSTAR":"0.00241870000000","COUNTRY_CODE":"US","CLASSIFICATION_TYPE":"U","EPOCH":"2021-11-26T22:00:00.999936","MEAN_ANOMALY":"115.1971","GP_ID":"190561052","TLE_LINE1":"1 48432U 21040E   21330.91667824  .00035908  00000-0  24187-2 0  9999","SITE":"AFETR","RA_OF_ASC_NODE":"326.6597","FILE":"3224952","LAUNCH_DATE":"2021-05-09","RCS_SIZE":"LARGE","MEAN_ELEMENT_THEORY":"SGP4","OBJECT_NAME":"STARLINK-2680","TLE_LINE2":"2 48432  53.0562 326.6597 0001939  55.2954 115.1971 15.06378271  3596","OBJECT_ID":"2021-040E","REV_AT_EPOCH":"359","DECAY_DATE":null,"MEAN_MOTION":"15.06378271","PERIOD":"95.594","PERIAPSIS":"545.937","NORAD_CAT_ID":"48432","INCLINATION":"53.0562","APOAPSIS":"548.623","TIME_SYSTEM":"UTC","ELEMENT_SET_NO":"999","REF_FRAME":"TEME","ARG_OF_PERICENTER":"55.2954","CENTER_NAME":"EARTH","MEAN_MOTION_DOT":"0.00035908","OBJECT_TYPE":"PAYLOAD","SEMIMAJOR_AXIS":"6925.415","EPHEMERIS_TYPE":"0","ECCENTRICITY":"0.00019390"},{"TLE_LINE1":"1 48433U 21040F   21330.91667824  .00017714  00000-0  12053-2 0  9994","SITE":"AFETR","RCS_SIZE":"LARGE","MEAN_ELEMENT_THEORY":"SGP4","RA_OF_ASC_NODE":"331.6599","LAUNCH_DATE":"2021-05-09","FILE":"3224952","OBJECT_NAME":"STARLINK-2699","TLE_LINE2":"2 48433  53.0535 331.6599 0001917  48.8097 354.1879 15.06393037  3596","MEAN_MOTION":"15.06393037","OBJECT_ID":"2021-040F","REV_AT_EPOCH":"359","DECAY_DATE":null,"BSTAR":"0.00120530000000","COUNTRY_CODE":"US","MEAN_MOTION_DDOT":"0.0000000000000","CLASSIFICATION_TYPE":"U","EPOCH":"2021-11-26T22:00:00.999936","GP_ID":"190559771","MEAN_ANOMALY":"354.1879","CENTER_NAME":"EARTH","MEAN_MOTION_DOT":"0.00017714","OBJECT_TYPE":"PAYLOAD","SEMIMAJOR_AXIS":"6925.370","EPHEMERIS_TYPE":"0","ECCENTRICITY":"0.00019170","PERIAPSIS":"545.907","PERIOD":"95.593","NORAD_CAT_ID":"48433","INCLINATION":"53.0535","REF_FRAME":"TEME","ARG_OF_PERICENTER":"48.8097","TIME_SYSTEM":"UTC","APOAPSIS":"548.562","ELEMENT_SET_NO":"999"},{"DECAY_DATE":null,"OBJECT_ID":"2021-040G","REV_AT_EPOCH":"358","MEAN_MOTION":"15.06376694","TLE_LINE2":"2 48434  53.0606 336.6448 0001754  45.4900 310.0096 15.06376694  3580","OBJECT_NAME":"STARLINK-2692","LAUNCH_DATE":"2021-05-09","FILE":"3224952","RA_OF_ASC_NODE":"336.6448","MEAN_ELEMENT_THEORY":"SGP4","RCS_SIZE":"LARGE","TLE_LINE1":"1 48434U 21040G   21330.91667824  .00048436  00000-0  32504-2 0  9993","SITE":"AFETR","MEAN_ANOMALY":"310.0096","GP_ID":"190561182","CLASSIFICATION_TYPE":"U","EPOCH":"2021-11-26T22:00:00.999936","MEAN_MOTION_DDOT":"0.0000000000000","COUNTRY_CODE":"US","BSTAR":"0.00325040000000","ECCENTRICITY":"0.00017540","EPHEMERIS_TYPE":"0","SEMIMAJOR_AXIS":"6925.420","OBJECT_TYPE":"PAYLOAD","MEAN_MOTION_DOT":"0.00048436","CENTER_NAME":"EARTH","ELEMENT_SET_NO":"999","TIME_SYSTEM":"UTC","APOAPSIS":"548.500","ARG_OF_PERICENTER":"45.4900","REF_FRAME":"TEME","INCLINATION":"53.0606","NORAD_CAT_ID":"48434","PERIAPSIS":"546.070","PERIOD":"95.594"},{"RA_OF_ASC_NODE":"345.9347","LAUNCH_DATE":"2021-05-09","FILE":"3224952","RCS_SIZE":"LARGE","MEAN_ELEMENT_THEORY":"SGP4","SITE":"AFETR","TLE_LINE1":"1 48435U 21040H   21330.77734990 -.00001128  00000-0 -59664-4 0  9994","OBJECT_ID":"2021-040H","REV_AT_EPOCH":"3113","DECAY_DATE":null,"MEAN_MOTION":"15.04773612","OBJECT_NAME":"STARLINK-2633","TLE_LINE2":"2 48435  53.0562 345.9347 0001358  68.9711 291.1422 15.04773612 31136","CLASSIFICATION_TYPE":"U","EPOCH":"2021-11-26T18:39:23.031360","MEAN_MOTION_DDOT":"0.0000000000000","BSTAR":"-0.00005966400000","COUNTRY_CODE":"US","MEAN_ANOMALY":"291.1422","GP_ID":"190560802","MEAN_MOTION_DOT":"-0.00001128","OBJECT_TYPE":"PAYLOAD","CENTER_NAME":"EARTH","EPHEMERIS_TYPE":"0","ECCENTRICITY":"0.00013580","SEMIMAJOR_AXIS":"6930.338","NORAD_CAT_ID":"48435","INCLINATION":"53.0562","PERIOD":"95.695","PERIAPSIS":"551.262","TIME_SYSTEM":"UTC","APOAPSIS":"553.144","ELEMENT_SET_NO":"999","REF_FRAME":"TEME","ARG_OF_PERICENTER":"68.9711"},{"BSTAR":"0.00004807800000","COUNTRY_CODE":"US","MEAN_MOTION_DDOT":"0.0000000000000","CLASSIFICATION_TYPE":"U","EPOCH":"2021-11-26T19:54:33.231456","GP_ID":"190560779","MEAN_ANOMALY":"299.8912","SITE":"AFETR","TLE_LINE1":"1 48436U 21040J   21330.82955129  .00000435  00000-0  48078-4 0  9995","RCS_SIZE":"LARGE","MEAN_ELEMENT_THEORY":"SGP4","RA_OF_ASC_NODE":"2.0541","LAUNCH_DATE":"2021-05-09","FILE":"3224952","OBJECT_NAME":"STARLINK-2639","TLE_LINE2":"2 48436  53.0548   2.0541 0001652  60.2241 299.8912 15.06399995 30912","MEAN_MOTION":"15.06399995","OBJECT_ID":"2021-040J","REV_AT_EPOCH":"3091","DECAY_DATE":null,"PERIAPSIS":"546.070","PERIOD":"95.592","NORAD_CAT_ID":"48436","INCLINATION":"53.0548","REF_FRAME":"TEME","ARG_OF_PERICENTER":"60.2241","TIME_SYSTEM":"UTC","APOAPSIS":"548.358","ELEMENT_SET_NO":"999","CENTER_NAME":"EARTH","MEAN_MOTION_DOT":"0.00000435","OBJECT_TYPE":"PAYLOAD","SEMIMAJOR_AXIS":"6925.349","EPHEMERIS_TYPE":"0","ECCENTRICITY":"0.00016520"},{"CENTER_NAME":"EARTH","OBJECT_TYPE":"PAYLOAD","MEAN_MOTION_DOT":"0.00150806","SEMIMAJOR_AXIS":"6927.264","ECCENTRICITY":"0.00012600","EPHEMERIS_TYPE":"0","PERIOD":"95.632","PERIAPSIS":"548.256","INCLINATION":"53.0226","NORAD_CAT_ID":"48437","ELEMENT_SET_NO":"999","APOAPSIS":"550.001","TIME_SYSTEM":"UTC","ARG_OF_PERICENTER":"122.6716","REF_FRAME":"TEME","SITE":"AFETR","TLE_LINE1":"1 48437U 21040K   21330.41532741  .00150806  00000-0  10097-1 0  9997","LAUNCH_DATE":"2021-05-09","FILE":"3224704","RA_OF_ASC_NODE":"14.0753","MEAN_ELEMENT_THEORY":"SGP4","RCS_SIZE":"MEDIUM","TLE_LINE2":"2 48437  53.0226  14.0753 0001260 122.6716 237.4394 15.05775371 30714","OBJECT_NAME":"STARLINK-2642","DECAY_DATE":null,"OBJECT_ID":"2021-040K","REV_AT_EPOCH":"3071","MEAN_MOTION":"15.05775371","MEAN_MOTION_DDOT":"0.0000000000000","COUNTRY_CODE":"US","BSTAR":"0.01009700000000","CLASSIFICATION_TYPE":"U","EPOCH":"2021-11-26T09:58:04.288224","GP_ID":"190531461","MEAN_ANOMALY":"237.4394"},{"CLASSIFICATION_TYPE":"U","EPOCH":"2021-11-26T19:49:15.150720","BSTAR":"0.00007469900000","COUNTRY_CODE":"US","MEAN_MOTION_DDOT":"0.0000000000000","MEAN_ANOMALY":"291.9958","GP_ID":"190561419","RCS_SIZE":"LARGE","MEAN_ELEMENT_THEORY":"SGP4","RA_OF_ASC_NODE":"2.0801","FILE":"3224952","LAUNCH_DATE":"2021-05-09","TLE_LINE1":"1 48438U 21040L   21330.82586980  .00000831  00000-0  74699-4 0  9990","SITE":"AFETR","MEAN_MOTION":"15.06399008","OBJECT_ID":"2021-040L","REV_AT_EPOCH":"3091","DECAY_DATE":null,"OBJECT_NAME":"STARLINK-2640","TLE_LINE2":"2 48438  53.0576   2.0801 0001601  68.1201 291.9958 15.06399008 30919","NORAD_CAT_ID":"48438","INCLINATION":"53.0576","PERIAPSIS":"546.108","PERIOD":"95.592","REF_FRAME":"TEME","ARG_OF_PERICENTER":"68.1201","TIME_SYSTEM":"UTC","APOAPSIS":"548.325","ELEMENT_SET_NO":"999","MEAN_MOTION_DOT":"0.00000831","OBJECT_TYPE":"PAYLOAD","CENTER_NAME":"EARTH","EPHEMERIS_TYPE":"0","ECCENTRICITY":"0.00016010","SEMIMAJOR_AXIS":"6925.352"},{"LAUNCH_DATE":"2021-05-09","FILE":"3224952","RA_OF_ASC_NODE":"2.1013","MEAN_ELEMENT_THEORY":"SGP4","RCS_SIZE":"LARGE","TLE_LINE1":"1 48439U 21040M   21330.82218704  .00000728  00000-0  67784-4 0  9999","SITE":"AFETR","DECAY_DATE":null,"OBJECT_ID":"2021-040M","REV_AT_EPOCH":"3091","MEAN_MOTION":"15.06394596","TLE_LINE2":"2 48439  53.0554   2.1013 0001287  69.3085 290.8042 15.06394596 30914","OBJECT_NAME":"STARLINK-2583","EPOCH":"2021-11-26T19:43:56.960256","CLASSIFICATION_TYPE":"U","MEAN_MOTION_DDOT":"0.0000000000000","COUNTRY_CODE":"US","BSTAR":"0.00006778400000","MEAN_ANOMALY":"290.8042","GP_ID":"190560529","OBJECT_TYPE":"PAYLOAD","MEAN_MOTION_DOT":"0.00000728","CENTER_NAME":"EARTH","ECCENTRICITY":"0.00012870","EPHEMERIS_TYPE":"0","SEMIMAJOR_AXIS":"6925.365","INCLINATION":"53.0554","NORAD_CAT_ID":"48439","PERIOD":"95.592","PERIAPSIS":"546.339","ELEMENT_SET_NO":"999","TIME_SYSTEM":"UTC","APOAPSIS":"548.121","ARG_OF_PERICENTER":"69.3085","REF_FRAME":"TEME"},{"DECAY_DATE":null,"REV_AT_EPOCH":"3091","OBJECT_ID":"2021-040N","MEAN_MOTION":"15.06401828","TLE_LINE2":"2 48440  53.0578   2.1010 0001487  71.6483 288.4667 15.06401828 30912","OBJECT_NAME":"STARLINK-2682","FILE":"3224952","LAUNCH_DATE":"2021-05-09","RA_OF_ASC_NODE":"2.1010","MEAN_ELEMENT_THEORY":"SGP4","RCS_SIZE":"LARGE","SITE":"AFETR","TLE_LINE1":"1 48440U 21040N   21330.81849441  .00001272  00000-0  10425-3 0  9992","GP_ID":"190561053","MEAN_ANOMALY":"288.4667","CLASSIFICATION_TYPE":"U","EPOCH":"2021-11-26T19:38:37.917024","MEAN_MOTION_DDOT":"0.0000000000000","COUNTRY_CODE":"US","BSTAR":"0.00010425000000","ECCENTRICITY":"0.00014870","EPHEMERIS_TYPE":"0","SEMIMAJOR_AXIS":"6925.343","OBJECT_TYPE":"PAYLOAD","MEAN_MOTION_DOT":"0.00001272","CENTER_NAME":"EARTH","ELEMENT_SET_NO":"999","TIME_SYSTEM":"UTC","APOAPSIS":"548.238","ARG_OF_PERICENTER":"71.6483","REF_FRAME":"TEME","INCLINATION":"53.0578","NORAD_CAT_ID":"48440","PERIAPSIS":"546.178","PERIOD":"95.592"}];
